YAOGAN-35 05C           
1 53763U 22109D   26068.97557007  .00010718  00000+0  45958-3 0  9990
2 53763  34.9905 260.7893 0002831  75.4847 284.6181 15.21968910195243
STARLINK-35738          
1 67116U 25299Q   26068.33334491 -.02079847  00000+0 -56765-1 0  9998
2 67116  43.0009 170.8346 0001309 273.8044  91.1615 15.40394704  5925
